[{"OBJECT_NAME":"BEIDOU-3 G3 (PRN 143)","OBJECT_ID":"2020-040A","EPOCH":"2026-03-04T00:52:10.600320","MEAN_MOTION":1.00275572,"ECCENTRICITY":0.0004301,"INCLINATION":2.1891,"RA_OF_ASC_NODE":67.1211,"ARG_OF_PERICENTER":315.9746,"MEAN_ANOMALY":262.2089,"EPHEMERIS_TYPE":0,"CLASSIFICATION_TYPE":"U","NORAD_CAT_ID":45807,"ELEMENT_SET_NO":999,"REV_AT_EPOCH":2101,"BSTAR":0,"MEAN_MOTION_DOT":-3.65e-6,"MEAN_MOTION_DDOT":0},{"OBJECT_NAME":"GALAXY 30 (WAAS/PRN 135)","OBJECT_ID":"2020-056C","EPOCH":"2026-03-04T03:10:27.341760","MEAN_MOTION":1.00272642,"ECCENTRICITY":0.000219,"INCLINATION":0.0148,"RA_OF_ASC_NODE":121.4053,"ARG_OF_PERICENTER":221.5134,"MEAN_ANOMALY":101.5622,"EPHEMERIS_TYPE":0,"CLASSIFICATION_TYPE":"U","NORAD_CAT_ID":46114,"ELEMENT_SET_NO":999,"REV_AT_EPOCH":2023,"BSTAR":0,"MEAN_MOTION_DOT":2.4e-7,"MEAN_MOTION_DDOT":0},{"OBJECT_NAME":"QZS-1R (QZSS/PRN 196)","OBJECT_ID":"2021-096A","EPOCH":"2026-03-03T16:55:38.753760","MEAN_MOTION":1.00291339,"ECCENTRICITY":0.0747356,"INCLINATION":37.2425,"RA_OF_ASC_NODE":81.1405,"ARG_OF_PERICENTER":269.6972,"MEAN_ANOMALY":198.6025,"EPHEMERIS_TYPE":0,"CLASSIFICATION_TYPE":"U","NORAD_CAT_ID":49336,"ELEMENT_SET_NO":999,"REV_AT_EPOCH":1595,"BSTAR":0,"MEAN_MOTION_DOT":-2.6e-6,"MEAN_MOTION_DDOT":0},{"OBJECT_NAME":"QZS-6 (QZSS/PRN 200)","OBJECT_ID":"2025-023A","EPOCH":"2026-03-04T04:07:38.638272","MEAN_MOTION":1.00270177,"ECCENTRICITY":0.0001873,"INCLINATION":0.0438,"RA_OF_ASC_NODE":309.624,"ARG_OF_PERICENTER":27.3096,"MEAN_ANOMALY":337.3973,"EPHEMERIS_TYPE":0,"CLASSIFICATION_TYPE":"U","NORAD_CAT_ID":62876,"ELEMENT_SET_NO":999,"REV_AT_EPOCH":390,"BSTAR":0,"MEAN_MOTION_DOT":-2.45e-6,"MEAN_MOTION_DDOT":0}]
