BEIDOU-3 G3             
1 45807U 20040A   26063.03623380 -.00000365  00000+0  00000+0 0  9995
2 45807   2.1891  67.1211 0004301 315.9746 262.2089  1.00275572 21010
GALAXY 30 (G-30)        
1 46114U 20056C   26063.13226090  .00000024  00000+0  00000+0 0  9993
2 46114   0.0148 121.4053 0002190 221.5134 101.5622  1.00272642 20235
QZS-1R (MICHIBIKI-1R)   
1 49336U 21096A   26062.70530965 -.00000260  00000+0  00000+0 0  9991
2 49336  37.2425  81.1405 0747356 269.6972 198.6025  1.00291339 15951
QZS-6 (MICHIBIKI-6)     
1 62876U 25023A   26063.17197498 -.00000245  00000+0  00000+0 0  9994
2 62876   0.0438 309.6240 0001873  27.3096 337.3973  1.00270177  3908
